{
"type": "FeatureCollection",
"name": "bishop_restaurants",
"crs": { "type": "name", "properties": { "name": "urn:ogc:def:crs:OGC:1.3:CRS84" } },
"features": [
{ "type": "Feature", "properties": { "element_type": "node", "osmid": 441549496, "amenity": "restaurant", "contact:facebook": "https://www.facebook.com/bishopwhiskeycreek", "contact:phone": "+1 760-873-7777", "contact:website": "https://whiskeycrk.com", "cuisine": "regional", "name": "Whiskey Creek", "addr:housenumber": null, "addr:postcode": null, "addr:state": null, "addr:street": null, "addr:city": null, "opening_hours": null, "phone": null, "website": null, "not:brand:wikidata": null, "smoking": null, "name:en": null, "wheelchair": null, "nodes": null, "brand": null, "brand:wikidata": null, "building": null, "check_date": null, "toilets": null, "building:levels": null, "delivery": null, "takeaway": null, "outdoor_seating": null }, "geometry": { "type": "Point", "coordinates": [ -118.3950379, 37.3644731 ] } },
{ "type": "Feature", "properties": { "element_type": "node", "osmid": 2800241838, "amenity": "restaurant", "contact:facebook": null, "contact:phone": null, "contact:website": null, "cuisine": "international", "name": "Sage", "addr:housenumber": "621", "addr:postcode": "93514", "addr:state": "CA", "addr:street": "West Line", "addr:city": null, "opening_hours": null, "phone": null, "website": null, "not:brand:wikidata": null, "smoking": null, "name:en": null, "wheelchair": null, "nodes": null, "brand": null, "brand:wikidata": null, "building": null, "check_date": null, "toilets": null, "building:levels": null, "delivery": null, "takeaway": null, "outdoor_seating": null }, "geometry": { "type": "Point", "coordinates": [ -118.4008074, 37.3614919 ] } },
{ "type": "Feature", "properties": { "element_type": "node", "osmid": 2925549401, "amenity": "restaurant", "contact:facebook": null, "contact:phone": null, "contact:website": null, "cuisine": "pizza", "name": "The Upper Crust Pizzeria", "addr:housenumber": "1180", "addr:postcode": "93514", "addr:state": null, "addr:street": "North Main Street", "addr:city": "Bishop", "opening_hours": "Mo-Su 11:00-22:30", "phone": "(760) 872-8153", "website": "https://www.uppercrustpizzabishop.com/", "not:brand:wikidata": null, "smoking": null, "name:en": null, "wheelchair": null, "nodes": null, "brand": null, "brand:wikidata": null, "building": null, "check_date": null, "toilets": null, "building:levels": null, "delivery": null, "takeaway": null, "outdoor_seating": null }, "geometry": { "type": "Point", "coordinates": [ -118.395104, 37.3734088 ] } },
{ "type": "Feature", "properties": { "element_type": "node", "osmid": 5676891623, "amenity": "restaurant", "contact:facebook": null, "contact:phone": null, "contact:website": null, "cuisine": "regional", "name": "Jack's Restaurant & Bakery", "addr:housenumber": null, "addr:postcode": "93514", "addr:state": null, "addr:street": null, "addr:city": "Bishop", "opening_hours": null, "phone": null, "website": null, "not:brand:wikidata": "Q6110826", "smoking": null, "name:en": null, "wheelchair": null, "nodes": null, "brand": null, "brand:wikidata": null, "building": null, "check_date": null, "toilets": null, "building:levels": null, "delivery": null, "takeaway": null, "outdoor_seating": null }, "geometry": { "type": "Point", "coordinates": [ -118.395594, 37.3641788 ] } },
{ "type": "Feature", "properties": { "element_type": "node", "osmid": 5732809525, "amenity": "restaurant", "contact:facebook": null, "contact:phone": null, "contact:website": null, "cuisine": "mexican", "name": "La Casita", "addr:housenumber": null, "addr:postcode": null, "addr:state": null, "addr:street": null, "addr:city": null, "opening_hours": null, "phone": "760-873-4828", "website": null, "not:brand:wikidata": null, "smoking": "no", "name:en": null, "wheelchair": null, "nodes": null, "brand": null, "brand:wikidata": null, "building": null, "check_date": null, "toilets": null, "building:levels": null, "delivery": null, "takeaway": null, "outdoor_seating": null }, "geometry": { "type": "Point", "coordinates": [ -118.3954552, 37.3606687 ] } },
{ "type": "Feature", "properties": { "element_type": "node", "osmid": 6668987386, "amenity": "restaurant", "contact:facebook": null, "contact:phone": null, "contact:website": null, "cuisine": "american", "name": "The Back Alley", "addr:housenumber": "649", "addr:postcode": "93514", "addr:state": null, "addr:street": "North Main Street", "addr:city": null, "opening_hours": "Su-Th 09:00-21:00; Fr,Sa 11:00-23:00", "phone": null, "website": null, "not:brand:wikidata": null, "smoking": null, "name:en": "The Back Alley Bowl and Grill & Sports Bar", "wheelchair": "yes", "nodes": null, "brand": null, "brand:wikidata": null, "building": null, "check_date": null, "toilets": null, "building:levels": null, "delivery": null, "takeaway": null, "outdoor_seating": null }, "geometry": { "type": "Point", "coordinates": [ -118.3968228, 37.3664488 ] } },
{ "type": "Feature", "properties": { "element_type": "way", "osmid": 266005143, "amenity": "restaurant", "contact:facebook": null, "contact:phone": null, "contact:website": null, "cuisine": "american", "name": "Denny's", "addr:housenumber": null, "addr:postcode": null, "addr:state": null, "addr:street": null, "addr:city": null, "opening_hours": null, "phone": null, "website": null, "not:brand:wikidata": null, "smoking": null, "name:en": null, "wheelchair": null, "brand": "Denny's", "brand:wikidata": "Q1189695", "building": "yes", "check_date": null, "toilets": null, "building:levels": null, "delivery": null, "takeaway": null, "outdoor_seating": null }, "geometry": { "type": "Polygon", "coordinates": [ [ [ -118.3951578, 37.371842 ], [ -118.3951565, 37.3716509 ], [ -118.3948368, 37.3716524 ], [ -118.3948382, 37.3718434 ], [ -118.3951578, 37.371842 ] ] ] } },
{ "type": "Feature", "properties": { "element_type": "way", "osmid": 316106205, "amenity": "restaurant", "contact:facebook": null, "contact:phone": null, "contact:website": null, "cuisine": "pizza", "name": "Pizza Factory", "addr:housenumber": "970", "addr:postcode": "93514", "addr:state": "CA", "addr:street": "North Main Street", "addr:city": "Bishop", "opening_hours": null, "phone": "+1 760 872 8888", "website": "https://www.pizzafactory.com/", "not:brand:wikidata": null, "smoking": "no", "name:en": null, "wheelchair": null, "brand": "Pizza Factory", "brand:wikidata": "Q39054369", "building": "commercial", "check_date": null, "toilets": null, "building:levels": null, "delivery": null, "takeaway": null, "outdoor_seating": null }, "geometry": { "type": "Polygon", "coordinates": [ [ [ -118.3952074, 37.371302 ], [ -118.3949462, 37.3713015 ], [ -118.3949472, 37.3709745 ], [ -118.3951595, 37.370975 ], [ -118.3951592, 37.3710679 ], [ -118.3952082, 37.371068 ], [ -118.3952074, 37.371302 ] ] ] } },
{ "type": "Feature", "properties": { "element_type": "way", "osmid": 558669327, "amenity": "restaurant", "contact:facebook": null, "contact:phone": null, "contact:website": null, "cuisine": null, "name": "Holy Smoke Texas Style BBQ", "addr:housenumber": "772", "addr:postcode": null, "addr:state": null, "addr:street": "North Main Street", "addr:city": null, "opening_hours": "Mo, We-Su 11:00-20:00", "phone": "+1 760-872-4227", "website": "https://www.holysmoketexasbbq.com/", "not:brand:wikidata": null, "smoking": null, "name:en": null, "wheelchair": null, "brand": null, "brand:wikidata": null, "building": "yes", "check_date": null, "toilets": null, "building:levels": null, "delivery": null, "takeaway": null, "outdoor_seating": null }, "geometry": { "type": "Polygon", "coordinates": [ [ [ -118.3951407, 37.3682012 ], [ -118.3949768, 37.3681994 ], [ -118.3949762, 37.3682317 ], [ -118.3948883, 37.3682308 ], [ -118.3948902, 37.3681264 ], [ -118.395142, 37.3681293 ], [ -118.3951407, 37.3682012 ] ] ] } },
{ "type": "Feature", "properties": { "element_type": "way", "osmid": 558669332, "amenity": "restaurant", "contact:facebook": null, "contact:phone": null, "contact:website": null, "cuisine": "american", "name": "Aaron Schat's Roadhouse", "addr:housenumber": "871", "addr:postcode": "93514", "addr:state": "CA", "addr:street": "N Main Street", "addr:city": "Bishop", "opening_hours": null, "phone": "+1 760-873-0000", "website": "https://www.schatsroadhouse.com/", "not:brand:wikidata": null, "smoking": null, "name:en": null, "wheelchair": null, "brand": null, "brand:wikidata": null, "building": "commercial", "check_date": "2023-06-10", "toilets": "yes", "building:levels": null, "delivery": null, "takeaway": null, "outdoor_seating": null }, "geometry": { "type": "Polygon", "coordinates": [ [ [ -118.3957508, 37.3700817 ], [ -118.3955289, 37.370083 ], [ -118.3955289, 37.3698588 ], [ -118.3957488, 37.3698588 ], [ -118.3957508, 37.3700817 ] ] ] } },
{ "type": "Feature", "properties": { "element_type": "way", "osmid": 595696425, "amenity": "restaurant", "contact:facebook": null, "contact:phone": null, "contact:website": null, "cuisine": "mexican", "name": "Amigos Mexican Restaurant", "addr:housenumber": "285", "addr:postcode": "93513;93514", "addr:state": "CA", "addr:street": "North Main Street;285", "addr:city": "Bishop", "opening_hours": null, "phone": "+1 760-872-2189", "website": null, "not:brand:wikidata": null, "smoking": null, "name:en": null, "wheelchair": null, "brand": null, "brand:wikidata": null, "building": "commercial", "check_date": null, "toilets": null, "building:levels": null, "delivery": null, "takeaway": null, "outdoor_seating": null }, "geometry": { "type": "Polygon", "coordinates": [ [ [ -118.395428, 37.3629601 ], [ -118.3957062, 37.3629566 ], [ -118.3957049, 37.3628898 ], [ -118.3954273, 37.3628933 ], [ -118.395428, 37.3629601 ] ] ] } },
{ "type": "Feature", "properties": { "element_type": "way", "osmid": 596233467, "amenity": "restaurant", "contact:facebook": null, "contact:phone": null, "contact:website": null, "cuisine": "chinese", "name": "Imperial Gourmet", "addr:housenumber": null, "addr:postcode": null, "addr:state": null, "addr:street": null, "addr:city": null, "opening_hours": null, "phone": null, "website": null, "not:brand:wikidata": null, "smoking": null, "name:en": null, "wheelchair": null, "brand": null, "brand:wikidata": null, "building": "commercial", "check_date": null, "toilets": null, "building:levels": "1", "delivery": "yes", "takeaway": "yes", "outdoor_seating": null }, "geometry": { "type": "Polygon", "coordinates": [ [ [ -118.395204, 37.3709128 ], [ -118.3950763, 37.3709138 ], [ -118.3950767, 37.3709486 ], [ -118.3947603, 37.3709509 ], [ -118.3947592, 37.3708608 ], [ -118.3949016, 37.3708598 ], [ -118.3949012, 37.3708228 ], [ -118.3952033, 37.3708207 ], [ -118.395204, 37.3709128 ] ] ] } },
{ "type": "Feature", "properties": { "element_type": "way", "osmid": 599142813, "amenity": "restaurant", "contact:facebook": null, "contact:phone": null, "contact:website": null, "cuisine": "japanese", "name": "Yamatani", "addr:housenumber": null, "addr:postcode": null, "addr:state": null, "addr:street": null, "addr:city": null, "opening_hours": null, "phone": null, "website": null, "not:brand:wikidata": null, "smoking": null, "name:en": null, "wheelchair": null, "brand": null, "brand:wikidata": null, "building": "commercial", "check_date": null, "toilets": null, "building:levels": null, "delivery": null, "takeaway": null, "outdoor_seating": null }, "geometry": { "type": "Polygon", "coordinates": [ [ [ -118.3958456, 37.3662344 ], [ -118.395525, 37.3662374 ], [ -118.3955221, 37.3660349 ], [ -118.3958426, 37.366032 ], [ -118.3958456, 37.3662344 ] ] ] } },
{ "type": "Feature", "properties": { "element_type": "way", "osmid": 599142824, "amenity": "restaurant", "contact:facebook": null, "contact:phone": null, "contact:website": null, "cuisine": null, "name": null, "addr:housenumber": "175", "addr:postcode": "93514", "addr:state": "CA", "addr:street": "South Main Street", "addr:city": "Bishop", "opening_hours": null, "phone": null, "website": null, "not:brand:wikidata": null, "smoking": null, "name:en": null, "wheelchair": null, "brand": null, "brand:wikidata": null, "building": "commercial", "check_date": null, "toilets": null, "building:levels": null, "delivery": null, "takeaway": null, "outdoor_seating": "no" }, "geometry": { "type": "Polygon", "coordinates": [ [ [ -118.3957352, 37.3607142 ], [ -118.3957357, 37.3606342 ], [ -118.3954109, 37.3606328 ], [ -118.3954103, 37.3607128 ], [ -118.3957352, 37.3607142 ] ] ] } },
{ "type": "Feature", "properties": { "element_type": "way", "osmid": 1084498392, "amenity": "restaurant", "contact:facebook": null, "contact:phone": null, "contact:website": null, "cuisine": "mexican", "name": "Mercado Mexico", "addr:housenumber": "276", "addr:postcode": "93514", "addr:state": "CA", "addr:street": "South Warren Street", "addr:city": "Bishop", "opening_hours": null, "phone": "760) 873-4546", "website": null, "not:brand:wikidata": null, "smoking": null, "name:en": null, "wheelchair": null, "brand": null, "brand:wikidata": null, "building": "yes", "check_date": null, "toilets": null, "building:levels": null, "delivery": null, "takeaway": null, "outdoor_seating": "yes" }, "geometry": { "type": "Polygon", "coordinates": [ [ [ -118.3961606, 37.360319 ], [ -118.396154, 37.3602167 ], [ -118.3958503, 37.3602111 ], [ -118.3958611, 37.3603192 ], [ -118.396047, 37.3603191 ], [ -118.3961606, 37.360319 ] ] ] } }
]
}
