[
  {
    "id": 10747552211,
    "type": "node",
    "tags": {
      "barrier": "kerb",
      "kerb": "lowered",
      "tactile_paving": "yes",
      "wheelchair": "yes"
    },
    "coordinates": [
      -122.2728136,
      37.8706706
    ],
    "name": "Unnamed Feature",
    "accessibility": [
      "wheelchair"
    ],
    "description": "A feature in Northern California",
    "popularity_score": null,
    "rarity": "most hidden",
    "color": "red",
    "time": 60,
    "detour_distance": 0.019253232673463003
  },
  {
    "id": 10747552214,
    "type": "node",
    "tags": {
      "barrier": "kerb",
      "kerb": "flush",
      "tactile_paving": "yes",
      "wheelchair": "yes"
    },
    "coordinates": [
      -122.2729078,
      37.8706543
    ],
    "name": "Unnamed Feature",
    "accessibility": [
      "wheelchair"
    ],
    "description": "A feature in Northern California",
    "popularity_score": null,
    "rarity": "most hidden",
    "color": "red",
    "time": 60,
    "detour_distance": 0.02094355311422523
  },
  {
    "id": 10747552212,
    "type": "node",
    "tags": {
      "barrier": "kerb",
      "kerb": "lowered",
      "tactile_paving": "yes",
      "wheelchair": "yes"
    },
    "coordinates": [
      -122.2730387,
      37.8706332
    ],
    "name": "Unnamed Feature",
    "accessibility": [
      "wheelchair"
    ],
    "description": "A feature in Northern California",
    "popularity_score": null,
    "rarity": "most hidden",
    "color": "red",
    "time": 60,
    "detour_distance": 0.02762340658092928
  },
  {
    "id": 10747552215,
    "type": "node",
    "tags": {
      "barrier": "kerb",
      "kerb": "flush",
      "tactile_paving": "yes",
      "wheelchair": "yes"
    },
    "coordinates": [
      -122.2729218,
      37.8705235
    ],
    "name": "Unnamed Feature",
    "accessibility": [
      "wheelchair"
    ],
    "description": "A feature in Northern California",
    "popularity_score": null,
    "rarity": "most hidden",
    "color": "red",
    "time": 60,
    "detour_distance": 0.03549263724754686
  },
  {
    "id": 11427800064,
    "type": "node",
    "tags": {
      "barrier": "kerb",
      "kerb": "flush",
      "tactile_paving": "yes",
      "wheelchair": "yes"
    },
    "coordinates": [
      -122.2731277,
      37.8714303
    ],
    "name": "Unnamed Feature",
    "accessibility": [
      "wheelchair"
    ],
    "description": "A feature in Northern California",
    "popularity_score": 6,
    "rarity": "most hidden",
    "color": "red",
    "time": 60,
    "detour_distance": 0.06970264647174275
  },
  {
    "id": 11427800066,
    "type": "node",
    "tags": {
      "barrier": "kerb",
      "kerb": "flush",
      "tactile_paving": "yes",
      "wheelchair": "yes"
    },
    "coordinates": [
      -122.2729257,
      37.8716946
    ],
    "name": "Unnamed Feature",
    "accessibility": [
      "wheelchair"
    ],
    "description": "A feature in Northern California",
    "popularity_score": null,
    "rarity": "most hidden",
    "color": "red",
    "time": 60,
    "detour_distance": 0.09526412946429798
  },
  {
    "id": 775881481,
    "type": "node",
    "tags": {
      "addr:city": "Berkeley",
      "addr:housenumber": "1885",
      "addr:postcode": "94703",
      "addr:state": "CA",
      "addr:street": "University Avenue",
      "branch": "Berkeley",
      "brand": "Trader Joe's",
      "brand:wikidata": "Q688825",
      "name": "Trader Joe's",
      "opening_hours": "Mo-Su 08:00-21:00",
      "phone": "+1 510-204-9074",
      "ref": "186",
      "shop": "supermarket",
      "website": "https://locations.traderjoes.com/ca/berkeley/186/",
      "wheelchair": "yes"
    },
    "coordinates": [
      -122.2732154,
      37.8717025
    ],
    "name": "Trader Joe's",
    "accessibility": [
      "wheelchair"
    ],
    "description": "A feature in Northern California",
    "popularity_score": null,
    "rarity": "most hidden",
    "color": "red",
    "time": 60,
    "detour_distance": 0.10084462297805946
  },
  {
    "id": 2059093052,
    "type": "node",
    "tags": {
      "addr:city": "Berkeley",
      "addr:country": "US",
      "addr:housenumber": "1941",
      "addr:state": "CA",
      "addr:street": "University Avenue",
      "amenity": "restaurant",
      "cuisine": "japanese",
      "name": "Kinda Izakaya",
      "wheelchair": "yes"
    },
    "coordinates": [
      -122.272119,
      37.8718309
    ],
    "name": "Kinda Izakaya",
    "amenity": "restaurant",
    "accessibility": [
      "wheelchair"
    ],
    "description": "A restaurant in Northern California",
    "popularity_score": null,
    "rarity": "most hidden",
    "color": "red",
    "time": 57,
    "detour_distance": 0.12814945054402677
  },
  {
    "id": 2247181637,
    "type": "node",
    "tags": {
      "addr:city": "Berkeley",
      "addr:country": "US",
      "addr:housenumber": "1954",
      "addr:postcode": "94704",
      "addr:state": "CA",
      "addr:street": "University Avenue",
      "amenity": "restaurant",
      "check_date": "2025-02-08",
      "cuisine": "sandwich",
      "diet:vegan": "only",
      "indoor_seating": "yes",
      "name": "The Butcher's Son",
      "opening_hours": "Mo,Th,Fr 11:00-20:00, Tu,We 11:00-15:00, Sa,Su 09:00-17:00",
      "outdoor_seating": "patio",
      "phone": "+1-510-984-0818",
      "website": "https://www.thebutchersveganson.com/",
      "wheelchair": "yes"
    },
    "coordinates": [
      -122.2716142,
      37.8715749
    ],
    "name": "The Butcher's Son",
    "amenity": "restaurant",
    "accessibility": [
      "wheelchair"
    ],
    "description": "A restaurant in Northern California",
    "popularity_score": null,
    "rarity": "most hidden",
    "color": "red",
    "time": 53,
    "detour_distance": 0.13676959460950028
  },
  {
    "id": 2059096768,
    "type": "node",
    "tags": {
      "addr:city": "Berkeley",
      "addr:country": "US",
      "addr:housenumber": "1995 suite 100",
      "addr:state": "CA",
      "addr:street": "University Avenue",
      "amenity": "bank",
      "atm": "no",
      "brand": "Charles Schwab",
      "brand:wikidata": "Q1066028",
      "drive_through": "no",
      "name": "Charles Schwab",
      "office": "financial_advisor",
      "opening_hours": "Mo-Fr 08:00-17:00",
      "wheelchair": "yes"
    },
    "coordinates": [
      -122.271629,
      37.871929
    ],
    "name": "Charles Schwab",
    "amenity": "bank",
    "accessibility": [
      "wheelchair"
    ],
    "description": "A bank in Northern California",
    "popularity_score": null,
    "rarity": "most hidden",
    "color": "red",
    "time": 60,
    "detour_distance": 0.1625247251791064
  },
  {
    "id": 4623066817,
    "type": "node",
    "tags": {
      "addr:city": "Berkeley",
      "addr:floor": "3",
      "addr:housenumber": "1947",
      "addr:postcode": "94704",
      "addr:state": "CA",
      "addr:street": "Center Street",
      "level": "3",
      "name": "City of Berkeley Permit Service Center",
      "office": "government",
      "website": "https://berkeleyca.gov/construction-development/permits-design-parameters/permit-process/permit-service-center",
      "wheelchair": "yes"
    },
    "coordinates": [
      -122.271196,
      37.8701324
    ],
    "name": "City of Berkeley Permit Service Center",
    "accessibility": [
      "wheelchair"
    ],
    "description": "A feature in Northern California",
    "popularity_score": null,
    "rarity": "most hidden",
    "color": "red",
    "time": 60,
    "detour_distance": 0.16610083045595478
  },
  {
    "id": 288991105,
    "type": "node",
    "tags": {
      "addr:city": "Berkeley",
      "addr:country": "US",
      "addr:housenumber": "1800",
      "addr:postcode": "94703",
      "addr:state": "CA",
      "addr:street": "University Avenue",
      "amenity": "fast_food",
      "cuisine": "burger",
      "drive_in": "no",
      "microbrewery": "no",
      "name": "Nation's Giant Hamburgers",
      "opening_hours": "Mo-Th, Su 06:00-00:30; Sa, Su 06:00-01:30",
      "phone": "+1 510 8437326",
      "smoking": "no",
      "website": "https://www.nationsrestaurants.com/",
      "wheelchair": "yes"
    },
    "coordinates": [
      -122.274845,
      37.8709518
    ],
    "name": "Nation's Giant Hamburgers",
    "amenity": "fast_food",
    "accessibility": [
      "wheelchair"
    ],
    "description": "A fast_food in Northern California",
    "popularity_score": null,
    "rarity": "most hidden",
    "color": "red",
    "time": 60,
    "detour_distance": 0.174422842310509
  },
  {
    "id": 2259555296,
    "type": "node",
    "tags": {
      "addr:city": "Berkeley",
      "addr:housenumber": "2120",
      "addr:state": "CA",
      "addr:street": "Milvia Street",
      "disused:name": "City of Berkeley Permit Service Center",
      "disused:office": "government",
      "wheelchair": "yes"
    },
    "coordinates": [
      -122.2706815,
      37.8701413
    ],
    "name": "Unnamed Feature",
    "accessibility": [
      "wheelchair"
    ],
    "description": "A feature in Northern California",
    "popularity_score": 6,
    "rarity": "most hidden",
    "color": "red",
    "time": 60,
    "detour_distance": 0.20661779230825766
  },
  {
    "id": 2259555666,
    "type": "node",
    "tags": {
      "addr:city": "Berkeley",
      "addr:housenumber": "2115",
      "addr:postcode": "94704",
      "addr:state": "CA",
      "addr:street": "Milvia Street",
      "amenity": "cafe",
      "name": "Nuha's Cafe",
      "outdoor_seating": "yes",
      "smoking": "no",
      "takeaway": "yes",
      "wheelchair": "yes"
    },
    "coordinates": [
      -122.2704935,
      37.8703901
    ],
    "name": "Nuha's Cafe",
    "amenity": "cafe",
    "accessibility": [
      "wheelchair"
    ],
    "description": "A cafe in Northern California",
    "popularity_score": null,
    "rarity": "most hidden",
    "color": "red",
    "time": 74,
    "detour_distance": 0.21390157993838738
  },
  {
    "id": 2259555546,
    "type": "node",
    "tags": {
      "addr:city": "Berkeley",
      "addr:housenumber": "2000",
      "addr:state": "CA",
      "addr:street": "Center Street",
      "addr:unit": "400",
      "name": "Berkeley Rent Board",
      "office": "government",
      "opening_hours": "Mo,Tu,Th,Fr 09:00-16:45; We 12:00-18:30",
      "phone": "+1 510 9817368",
      "website": "https://rentboard.berkeleyca.gov/",
      "wheelchair": "yes"
    },
    "coordinates": [
      -122.2703141,
      37.8698089
    ],
    "name": "Berkeley Rent Board",
    "accessibility": [
      "wheelchair"
    ],
    "description": "A feature in Northern California",
    "popularity_score": null,
    "rarity": "most hidden",
    "color": "red",
    "time": 60,
    "detour_distance": 0.25136692832375757
  },
  {
    "id": 540608853,
    "type": "node",
    "tags": {
      "addr:city": "Berkeley",
      "addr:country": "US",
      "addr:housenumber": "2015",
      "addr:state": "CA",
      "addr:street": "Addison Street",
      "amenity": "theatre",
      "name": "The Roda Theatre",
      "wheelchair": "yes"
    },
    "coordinates": [
      -122.2697753,
      37.8712453
    ],
    "name": "The Roda Theatre",
    "amenity": "theatre",
    "accessibility": [
      "wheelchair"
    ],
    "description": "A theatre in Northern California",
    "popularity_score": null,
    "rarity": "most hidden",
    "color": "red",
    "time": 60,
    "detour_distance": 0.2747621752835955
  },
  {
    "id": 4070522012,
    "type": "node",
    "tags": {
      "addr:city": "Berkeley",
      "addr:country": "US",
      "addr:housenumber": "2036",
      "addr:postcode": "94704",
      "addr:state": "CA",
      "addr:street": "University Avenue",
      "amenity": "theatre",
      "capacity": "1250",
      "name": "The UC Theatre",
      "phone": "+1 510 3564000",
      "source": "survey",
      "was:amenity": "cinema",
      "website": "https://www.theuctheatre.org/",
      "wheelchair": "yes",
      "wikidata": "Q7864197"
    },
    "coordinates": [
      -122.2698143,
      37.8718055
    ],
    "name": "The UC Theatre",
    "amenity": "theatre",
    "accessibility": [
      "wheelchair"
    ],
    "description": "A theatre in Northern California",
    "popularity_score": null,
    "rarity": "most hidden",
    "color": "red",
    "time": 60,
    "detour_distance": 0.28836494032185367
  },
  {
    "id": 2326547409,
    "type": "node",
    "tags": {
      "addr:city": "Berkeley",
      "addr:country": "US",
      "addr:housenumber": "2042",
      "addr:state": "CA",
      "addr:street": "University Avenue",
      "amenity": "restaurant",
      "cuisine": "salvadoran",
      "drive_in": "no",
      "microbrewery": "no",
      "name": "Platano",
      "opening_hours": "Su-Th 11:30-21:00, Fr,Sa 11:30-22:00",
      "outdoor_seating": "no",
      "smoking": "no",
      "website": "https://www.cafeplatano.com/",
      "wheelchair": "yes"
    },
    "coordinates": [
      -122.2697291,
      37.8718164
    ],
    "name": "Platano",
    "amenity": "restaurant",
    "accessibility": [
      "wheelchair"
    ],
    "description": "A restaurant in Northern California",
    "popularity_score": null,
    "rarity": "most hidden",
    "color": "red",
    "time": 66,
    "detour_distance": 0.2957612683128128
  },
  {
    "id": 6138205908,
    "type": "node",
    "tags": {
      "addr:city": "Berkeley",
      "addr:country": "US",
      "addr:housenumber": "2025",
      "addr:state": "CA",
      "addr:street": "Addison Street",
      "amenity": "theatre",
      "name": "Peet's Theatre",
      "wheelchair": "yes"
    },
    "coordinates": [
      -122.269334,
      37.8712898
    ],
    "name": "Peet's Theatre",
    "amenity": "theatre",
    "accessibility": [
      "wheelchair"
    ],
    "description": "A theatre in Northern California",
    "popularity_score": null,
    "rarity": "most hidden",
    "color": "red",
    "time": 60,
    "detour_distance": 0.3137880010663927
  },
  {
    "id": 6654037890,
    "type": "node",
    "tags": {
      "addr:city": "Berkeley",
      "addr:country": "US",
      "addr:housenumber": "1725",
      "addr:postcode": "94703",
      "addr:state": "CA",
      "addr:street": "University Avenue",
      "amenity": "restaurant",
      "cuisine": "chinese",
      "diet:vegetarian": "yes",
      "name": "Long Life Vegi House",
      "opening_hours": "Mo-Su 11:30-15:30, 17:00-21:00; Tu off",
      "payment:cash": "yes",
      "payment:coins": "yes",
      "payment:credit_cards": "yes",
      "payment:debit_cards": "yes",
      "payment:mastercard": "yes",
      "payment:notes": "yes",
      "payment:visa": "yes",
      "phone": "+1 510-845-6072",
      "smoking": "no",
      "takeaway": "yes",
      "toilets": "yes",
      "website": "https://www.longlifevegihouse.com/",
      "wheelchair": "yes"
    },
    "coordinates": [
      -122.276673,
      37.8712823
    ],
    "name": "Long Life Vegi House",
    "amenity": "restaurant",
    "accessibility": [
      "wheelchair"
    ],
    "description": "A restaurant in Northern California",
    "popularity_score": null,
    "rarity": "most hidden",
    "color": "red",
    "time": 50,
    "detour_distance": 0.33803731726000846
  },
  {
    "id": 2261143233,
    "type": "node",
    "tags": {
      "addr:city": "Berkeley",
      "addr:housenumber": "2043",
      "addr:state": "CA",
      "addr:street": "Allston Way",
      "amenity": "cafe",
      "check_date": "2024-04-07",
      "cuisine": "bagel;salad",
      "name": "Lox Stock & Bagel",
      "opening_hours": "Mo-Fr 08:00-15:00",
      "outdoor_seating": "no",
      "smoking": "no",
      "takeaway": "yes",
      "website": "https://orderloxstocknbagel.com/",
      "wheelchair": "yes"
    },
    "coordinates": [
      -122.269465,
      37.8693065
    ],
    "name": "Lox Stock & Bagel",
    "amenity": "cafe",
    "accessibility": [
      "wheelchair"
    ],
    "description": "A cafe in Northern California",
    "popularity_score": null,
    "rarity": "most hidden",
    "color": "red",
    "time": 60,
    "detour_distance": 0.34353173424494154
  },
  {
    "id": 2350147008,
    "type": "node",
    "tags": {
      "addr:city": "Berkeley",
      "addr:country": "US",
      "addr:housenumber": "2071",
      "addr:postcode": "94704",
      "addr:state": "CA",
      "addr:street": "University Avenue",
      "amenity": "fast_food",
      "check_date": "2025-03-19",
      "cuisine": "salad",
      "diet:vegan": "yes",
      "diet:vegetarian": "yes",
      "drive_through": "no",
      "level": "0",
      "name": "Tender Greens",
      "opening_hours": "Mo-Fr 10:00-21:00; Sa, Su 11:00-21:00",
      "outdoor_seating": "yes",
      "phone": "(510) 356-0697",
      "smoking": "no",
      "takeaway": "yes",
      "website": "https://www.tendergreens.com/locations/berkeley",
      "wheelchair": "yes"
    },
    "coordinates": [
      -122.268993,
      37.8722391
    ],
    "name": "Tender Greens",
    "amenity": "fast_food",
    "accessibility": [
      "wheelchair"
    ],
    "description": "A fast_food in Northern California",
    "popularity_score": null,
    "rarity": "most hidden",
    "color": "red",
    "time": 60,
    "detour_distance": 0.37365587922792887
  },
  {
    "id": 540608969,
    "type": "node",
    "tags": {
      "addr:city": "Berkeley",
      "addr:country": "US",
      "addr:housenumber": "2102",
      "addr:state": "CA",
      "addr:street": "Shattuck Avenue",
      "amenity": "restaurant",
      "check_date": "2025-03-19",
      "contact:instagram": "revivalbarandkitchen",
      "cuisine": "regional;pizza;california;seafood;mediterranean",
      "name": "Revival Kitchen",
      "opening_hours": "Mo-Th 16:00-22:00; Fr 15:30-22:00; Sa 17:00-22:00; Sa, Su 10:30-14:00; Su 16:30-21:00",
      "phone": "(510) 549-9950",
      "website": "https://www.revivalbarandkitchen.com/",
      "wheelchair": "yes"
    },
    "coordinates": [
      -122.2684788,
      37.8710428
    ],
    "name": "Revival Kitchen",
    "amenity": "restaurant",
    "accessibility": [
      "wheelchair"
    ],
    "description": "A restaurant in Northern California",
    "popularity_score": 7,
    "rarity": "most hidden",
    "color": "red",
    "time": 73,
    "detour_distance": 0.3854956490217381
  },
  {
    "id": 540609033,
    "type": "node",
    "tags": {
      "addr:city": "Berkeley",
      "addr:country": "US",
      "addr:housenumber": "2024",
      "addr:postcode": "94704",
      "addr:state": "CA",
      "addr:street": "Shattuck Avenue",
      "amenity": "restaurant",
      "check_date": "2025-03-19",
      "contact:instagram": "comalnextdoor",
      "cuisine": "mexican",
      "drive_through": "no",
      "name": "Comal Next Door",
      "opening_hours": "Mo-Su 11:00-20:30",
      "phone": "510-422-6625",
      "smoking": "no",
      "takeaway": "yes",
      "website": "https://www.comalnextdoor.com/location/comal-next-door-berkeley/",
      "wheelchair": "yes"
    },
    "coordinates": [
      -122.26852,
      37.871489
    ],
    "name": "Comal Next Door",
    "amenity": "restaurant",
    "accessibility": [
      "wheelchair"
    ],
    "description": "A restaurant in Northern California",
    "popularity_score": null,
    "rarity": "most hidden",
    "color": "red",
    "time": 74,
    "detour_distance": 0.3879983925320584
  },
  {
    "id": 12152802628,
    "type": "node",
    "tags": {
      "addr:housenumber": "2114",
      "addr:street": "Shattuck Avenue",
      "amenity": "restaurant",
      "check_date": "2025-03-19",
      "cuisine": "thai",
      "level": "0",
      "name": "Katak",
      "opening_hours": "Mo-Th 11:00-20:30; Fr 11:00-21:30; Sa-Su 12:00-21:30",
      "phone": "+1 628-358-8104",
      "website": "https://katakchickenrice.com",
      "wheelchair": "yes"
    },
    "coordinates": [
      -122.268443,
      37.8707265
    ],
    "name": "Katak",
    "amenity": "restaurant",
    "accessibility": [
      "wheelchair"
    ],
    "description": "A restaurant in Northern California",
    "popularity_score": 6,
    "rarity": "most hidden",
    "color": "red",
    "time": 57,
    "detour_distance": 0.388176887702433
  },
  {
    "id": 10720370099,
    "type": "node",
    "tags": {
      "barrier": "kerb",
      "kerb": "lowered",
      "tactile_paving": "yes",
      "wheelchair": "yes"
    },
    "coordinates": [
      -122.2684212,
      37.8711219
    ],
    "name": "Unnamed Feature",
    "accessibility": [
      "wheelchair"
    ],
    "description": "A feature in Northern California",
    "popularity_score": 5,
    "rarity": "most hidden",
    "color": "red",
    "time": 60,
    "detour_distance": 0.39115096207826283
  },
  {
    "id": 10747582624,
    "type": "node",
    "tags": {
      "barrier": "kerb",
      "kerb": "lowered",
      "tactile_paving": "yes",
      "wheelchair": "yes"
    },
    "coordinates": [
      -122.2684289,
      37.871193
    ],
    "name": "Unnamed Feature",
    "accessibility": [
      "wheelchair"
    ],
    "description": "A feature in Northern California",
    "popularity_score": null,
    "rarity": "most hidden",
    "color": "red",
    "time": 60,
    "detour_distance": 0.39119269529287415
  },
  {
    "id": 540466655,
    "type": "node",
    "tags": {
      "addr:city": "Berkeley",
      "addr:housenumber": "2144",
      "addr:postcode": "94704",
      "addr:state": "CA",
      "addr:street": "Shattuck Avenue",
      "amenity": "bank",
      "atm": "yes",
      "brand": "Wells Fargo",
      "brand:wikidata": "Q744149",
      "check_date:opening_hours": "2022-01-17",
      "name": "Wells Fargo",
      "opening_hours": "Mo-Sa 09:00-18:00",
      "wheelchair": "yes"
    },
    "coordinates": [
      -122.2684,
      37.8704378
    ],
    "name": "Wells Fargo",
    "amenity": "bank",
    "accessibility": [
      "wheelchair"
    ],
    "description": "A bank in Northern California",
    "popularity_score": null,
    "rarity": "most hidden",
    "color": "red",
    "time": 60,
    "detour_distance": 0.3942850796368824
  },
  {
    "id": 431022136,
    "type": "node",
    "tags": {
      "bicycle": "yes",
      "highway": "elevator",
      "level": "1;-1",
      "railway": "subway_entrance",
      "ref": "B2",
      "wheelchair": "yes"
    },
    "coordinates": [
      -122.2683065,
      37.8704762
    ],
    "name": "Unnamed Feature",
    "accessibility": [
      "wheelchair"
    ],
    "description": "A feature in Northern California",
    "popularity_score": null,
    "rarity": "most hidden",
    "color": "red",
    "time": 60,
    "detour_distance": 0.401989148519438
  },
  {
    "id": 2589491438,
    "type": "node",
    "tags": {
      "addr:housenumber": "2150",
      "addr:street": "Shattuck Avenue",
      "amenity": "fast_food",
      "brand:wikidata": "Q6884112",
      "check_date": "2024-04-07",
      "cuisine": "salad",
      "diet:vegetarian": "yes",
      "drive_through": "no",
      "indoor_seating": "yes",
      "level": "0",
      "name": "Mixt",
      "opening_hours:signed": "no",
      "outdoor_seating": "no",
      "smoking": "no",
      "wheelchair": "yes"
    },
    "coordinates": [
      -122.268378,
      37.8699823
    ],
    "name": "Mixt",
    "amenity": "fast_food",
    "accessibility": [
      "wheelchair"
    ],
    "description": "A fast_food in Northern California",
    "popularity_score": null,
    "rarity": "most hidden",
    "color": "red",
    "time": 60,
    "detour_distance": 0.4050508917822904
  },
  {
    "id": 7151080143,
    "type": "node",
    "tags": {
      "barrier": "turnstile",
      "bicycle": "yes",
      "fee": "yes",
      "foot": "yes",
      "layer": "-1",
      "level": "-1",
      "network": "BART",
      "payment:clipper": "yes",
      "wheelchair": "yes"
    },
    "coordinates": [
      -122.2682516,
      37.8706618
    ],
    "name": "Unnamed Feature",
    "accessibility": [
      "wheelchair"
    ],
    "description": "A feature in Northern California",
    "popularity_score": null,
    "rarity": "most hidden",
    "color": "red",
    "time": 60,
    "detour_distance": 0.4052557939473406
  },
  {
    "id": 314115730,
    "type": "node",
    "tags": {
      "addr:city": "Berkeley",
      "addr:country": "US",
      "addr:housenumber": "1998",
      "addr:postcode": "94704",
      "addr:state": "CA",
      "addr:street": "Shattuck Avenue",
      "amenity": "fast_food",
      "brand": "McDonald's",
      "brand:wikidata": "Q38076",
      "check_date": "2025-03-19",
      "cuisine": "burger",
      "diet:vegetarian": "yes",
      "drive_in": "no",
      "drive_through": "no",
      "indoor_seating": "yes",
      "internet_access": "wlan",
      "internet_access:fee": "no",
      "name": "McDonald's",
      "opening_hours": "Mo-Su 06:00-23:55",
      "outdoor_seating": "no",
      "phone": "+1 510-843-1500",
      "takeaway": "yes",
      "website": "https://www.mcdonalds.com/us/en-us/location/4372.html",
      "wheelchair": "yes"
    },
    "coordinates": [
      -122.268629,
      37.872303
    ],
    "name": "McDonald's",
    "amenity": "fast_food",
    "accessibility": [
      "wheelchair"
    ],
    "description": "A fast_food in Northern California",
    "popularity_score": null,
    "rarity": "most hidden",
    "color": "red",
    "time": 60,
    "detour_distance": 0.4057198057578889
  },
  {
    "id": 2350130042,
    "type": "node",
    "tags": {
      "addr:city": "Berkeley",
      "addr:housenumber": "2170",
      "addr:street": "Shattuck Avenue",
      "amenity": "ice_cream",
      "check_date": "2024-04-07",
      "indoor_seating": "yes",
      "level": "0",
      "name": "Almare",
      "opening_hours": "Mo-Th 11:00-22:00; Fr-Su 11:00-23:00",
      "outdoor_seating": "sidewalk",
      "wheelchair": "yes"
    },
    "coordinates": [
      -122.268342,
      37.869893
    ],
    "name": "Almare",
    "amenity": "ice_cream",
    "accessibility": [
      "wheelchair"
    ],
    "description": "A ice_cream in Northern California",
    "popularity_score": 6,
    "rarity": "most hidden",
    "color": "red",
    "time": 60,
    "detour_distance": 0.41055516346487386
  },
  {
    "id": 10720370100,
    "type": "node",
    "tags": {
      "barrier": "kerb",
      "kerb": "lowered",
      "tactile_paving": "yes",
      "wheelchair": "yes"
    },
    "coordinates": [
      -122.2681551,
      37.8711313
    ],
    "name": "Unnamed Feature",
    "accessibility": [
      "wheelchair"
    ],
    "description": "A feature in Northern California",
    "popularity_score": null,
    "rarity": "most hidden",
    "color": "red",
    "time": 60,
    "detour_distance": 0.41451763875620756
  },
  {
    "id": 10747582621,
    "type": "node",
    "tags": {
      "barrier": "kerb",
      "kerb": "lowered",
      "tactile_paving": "yes",
      "wheelchair": "yes"
    },
    "coordinates": [
      -122.2681678,
      37.8712481
    ],
    "name": "Unnamed Feature",
    "accessibility": [
      "wheelchair"
    ],
    "description": "A feature in Northern California",
    "popularity_score": null,
    "rarity": "most hidden",
    "color": "red",
    "time": 60,
    "detour_distance": 0.41462822890297174
  },
  {
    "id": 7151080108,
    "type": "node",
    "tags": {
      "barrier": "turnstile",
      "bicycle": "yes",
      "fee": "yes",
      "foot": "yes",
      "layer": "-1",
      "level": "-1",
      "network": "BART",
      "payment:clipper": "yes",
      "wheelchair": "yes"
    },
    "coordinates": [
      -122.2682165,
      37.8701535
    ],
    "name": "Unnamed Feature",
    "accessibility": [
      "wheelchair"
    ],
    "description": "A feature in Northern California",
    "popularity_score": null,
    "rarity": "most hidden",
    "color": "red",
    "time": 60,
    "detour_distance": 0.4149249928397937
  },
  {
    "id": 7071604251,
    "type": "node",
    "tags": {
      "bus": "yes",
      "disused:highway": "bus_stop",
      "disused:public_transport": "platform",
      "name": "Shattuck Avenue & Addison Street",
      "network": "Bear Transit",
      "operator": "Bear Transit",
      "shelter": "no",
      "tactile_paving": "no",
      "wheelchair": "yes"
    },
    "coordinates": [
      -122.2681336,
      37.8708358
    ],
    "name": "Shattuck Avenue & Addison Street",
    "accessibility": [
      "wheelchair"
    ],
    "description": "A feature in Northern California",
    "popularity_score": null,
    "rarity": "most hidden",
    "color": "red",
    "time": 60,
    "detour_distance": 0.4151322612664246
  },
  {
    "id": 7151080092,
    "type": "node",
    "tags": {
      "barrier": "turnstile",
      "bicycle": "yes",
      "fee": "yes",
      "foot": "yes",
      "layer": "-1",
      "level": "-1",
      "network": "BART",
      "payment:clipper": "yes",
      "wheelchair": "yes"
    },
    "coordinates": [
      -122.268201,
      37.8700343
    ],
    "name": "Unnamed Feature",
    "accessibility": [
      "wheelchair"
    ],
    "description": "A feature in Northern California",
    "popularity_score": 9,
    "rarity": "most hidden",
    "color": "red",
    "time": 60,
    "detour_distance": 0.41889362661617724
  },
  {
    "id": 10747551980,
    "type": "node",
    "tags": {
      "barrier": "kerb",
      "kerb": "flush",
      "tactile_paving": "yes",
      "wheelchair": "yes"
    },
    "coordinates": [
      -122.2680949,
      37.8702261
    ],
    "name": "Unnamed Feature",
    "accessibility": [
      "wheelchair"
    ],
    "description": "A feature in Northern California",
    "popularity_score": 1,
    "rarity": "most hidden",
    "color": "red",
    "time": 60,
    "detour_distance": 0.4240485447162233
  },
  {
    "id": 3075614341,
    "type": "node",
    "tags": {
      "addr:city": "Berkeley",
      "addr:country": "US",
      "addr:housenumber": "1956",
      "addr:state": "CA",
      "addr:street": "Shattuck Avenue",
      "amenity": "restaurant",
      "check_date": "2025-03-19",
      "cuisine": "japanese",
      "diet:vegan": "only",
      "drive_in": "no",
      "level": "0",
      "microbrewery": "no",
      "name": "Tane Vegan Izakaya",
      "opening_hours": "Mo-Su 16:30-21:30",
      "opening_hours:signed": "no",
      "outdoor_seating": "no",
      "phone": "+1 510-898-1514",
      "smoking": "no",
      "website": "https://taneveganizakayaca.com",
      "wheelchair": "yes"
    },
    "coordinates": [
      -122.2686736,
      37.8728113
    ],
    "name": "Tane Vegan Izakaya",
    "amenity": "restaurant",
    "accessibility": [
      "wheelchair"
    ],
    "description": "A restaurant in Northern California",
    "popularity_score": null,
    "rarity": "most hidden",
    "color": "red",
    "time": 52,
    "detour_distance": 0.428142197651676
  },
  {
    "id": 3644674377,
    "type": "node",
    "tags": {
      "addr:country": "US",
      "addr:housenumber": "100",
      "addr:state": "CA",
      "addr:street": "Berkeley Square",
      "name": "Sunshine",
      "shop": "tobacco",
      "wheelchair": "yes"
    },
    "coordinates": [
      -122.2678971,
      37.8711128
    ],
    "name": "Sunshine",
    "accessibility": [
      "wheelchair"
    ],
    "description": "A feature in Northern California",
    "popularity_score": null,
    "rarity": "most hidden",
    "color": "red",
    "time": 60,
    "detour_distance": 0.4369501154970997
  },
  {
    "id": 1957629531,
    "type": "node",
    "tags": {
      "barrier": "kerb",
      "kerb": "lowered",
      "tactile_paving": "yes",
      "wheelchair": "yes"
    },
    "coordinates": [
      -122.268219,
      37.8693986
    ],
    "name": "Unnamed Feature",
    "accessibility": [
      "wheelchair"
    ],
    "description": "A feature in Northern California",
    "popularity_score": null,
    "rarity": "most hidden",
    "color": "red",
    "time": 60,
    "detour_distance": 0.4379884281818509
  },
  {
    "id": 10747551961,
    "type": "node",
    "tags": {
      "barrier": "kerb",
      "kerb": "flush",
      "motor_vehicle": "no",
      "tactile_paving": "yes",
      "wheelchair": "yes"
    },
    "coordinates": [
      -122.2678219,
      37.8704518
    ],
    "name": "Unnamed Feature",
    "accessibility": [
      "wheelchair"
    ],
    "description": "A feature in Northern California",
    "popularity_score": null,
    "rarity": "most hidden",
    "color": "red",
    "time": 60,
    "detour_distance": 0.4445862034837787
  },
  {
    "id": 10747551977,
    "type": "node",
    "tags": {
      "barrier": "bollard",
      "bicycle": "yes",
      "foot": "yes",
      "motor_vehicle": "no",
      "wheelchair": "yes"
    },
    "coordinates": [
      -122.2678408,
      37.870285
    ],
    "name": "Unnamed Feature",
    "accessibility": [
      "wheelchair"
    ],
    "description": "A feature in Northern California",
    "popularity_score": null,
    "rarity": "most hidden",
    "color": "red",
    "time": 60,
    "detour_distance": 0.4451227246861113
  },
  {
    "id": 10747582610,
    "type": "node",
    "tags": {
      "barrier": "kerb",
      "kerb": "flush",
      "tactile_paving": "yes",
      "wheelchair": "yes"
    },
    "coordinates": [
      -122.2678251,
      37.8712989
    ],
    "name": "Unnamed Feature",
    "accessibility": [
      "wheelchair"
    ],
    "description": "A feature in Northern California",
    "popularity_score": 9,
    "rarity": "most hidden",
    "color": "red",
    "time": 60,
    "detour_distance": 0.44515312354990483
  },
  {
    "id": 12589810837,
    "type": "node",
    "tags": {
      "barrier": "kerb",
      "kerb": "flush",
      "tactile_paving": "yes",
      "wheelchair": "yes"
    },
    "coordinates": [
      -122.2678357,
      37.8702844
    ],
    "name": "Unnamed Feature",
    "accessibility": [
      "wheelchair"
    ],
    "description": "A feature in Northern California",
    "popularity_score": null,
    "rarity": "most hidden",
    "color": "red",
    "time": 60,
    "detour_distance": 0.44557531613266443
  },
  {
    "id": 12589810835,
    "type": "node",
    "tags": {
      "barrier": "kerb",
      "kerb": "flush",
      "tactile_paving": "yes",
      "wheelchair": "yes"
    },
    "coordinates": [
      -122.2677213,
      37.8704582
    ],
    "name": "Unnamed Feature",
    "accessibility": [
      "wheelchair"
    ],
    "description": "A feature in Northern California",
    "popularity_score": null,
    "rarity": "most hidden",
    "color": "red",
    "time": 60,
    "detour_distance": 0.45330872142496176
  },
  {
    "id": 2281419391,
    "type": "node",
    "tags": {
      "addr:city": "Berkeley",
      "addr:country": "US",
      "addr:housenumber": "1926",
      "addr:state": "CA",
      "addr:street": "Shattuck Avenue",
      "amenity": "restaurant",
      "cuisine": "ramen",
      "name": "Tsuruya",
      "smoking": "no",
      "website": "https://www.instagram.com/tsuruyaramen_berkeley/",
      "wheelchair": "yes"
    },
    "coordinates": [
      -122.268739,
      37.873344
    ],
    "name": "Tsuruya",
    "amenity": "restaurant",
    "accessibility": [
      "wheelchair"
    ],
    "description": "A restaurant in Northern California",
    "popularity_score": 9,
    "rarity": "most hidden",
    "color": "red",
    "time": 53,
    "detour_distance": 0.4567291189460834
  },
  {
    "id": 10747582605,
    "type": "node",
    "tags": {
      "barrier": "kerb",
      "kerb": "flush",
      "tactile_paving": "yes",
      "wheelchair": "yes"
    },
    "coordinates": [
      -122.2676466,
      37.8711276
    ],
    "name": "Unnamed Feature",
    "accessibility": [
      "wheelchair"
    ],
    "description": "A feature in Northern California",
    "popularity_score": null,
    "rarity": "most hidden",
    "color": "red",
    "time": 60,
    "detour_distance": 0.45899937381911776
  },
  {
    "id": 2362894599,
    "type": "node",
    "tags": {
      "alt_name": "Downtown Berkeley BART",
      "bus": "yes",
      "highway": "bus_stop",
      "name": "Kala Bagai Way & Addison Street",
      "network": "Bear Transit",
      "old_name": "Shattuck Avenue & Addison Street",
      "operator": "University of California, Berkeley",
      "public_transport": "platform",
      "shelter": "no",
      "tactile_paving": "no",
      "wheelchair": "yes"
    },
    "coordinates": [
      -122.2676235,
      37.8710537
    ],
    "name": "Kala Bagai Way & Addison Street",
    "accessibility": [
      "wheelchair"
    ],
    "description": "A feature in Northern California",
    "popularity_score": null,
    "rarity": "most hidden",
    "color": "red",
    "time": 60,
    "detour_distance": 0.460523884413422
  },
  {
    "id": 3191146339,
    "type": "node",
    "tags": {
      "addr:city": "Berkeley",
      "addr:housenumber": "2177",
      "addr:postcode": "94704",
      "addr:street": "Shattuck Avenue",
      "amenity": "restaurant",
      "check_date": "2024-12-23",
      "check_date:opening_hours": "2022-11-05",
      "cuisine": "onigiri",
      "diet:vegan": "yes",
      "diet:vegetarian": "yes",
      "indoor_seating": "no",
      "level": "0",
      "name": "Oori Rice Triangles",
      "opening_hours": "Mo-Sa 11:00-20:00; Su 11:00-18:00",
      "outdoor_seating": "no",
      "takeaway": "only",
      "wheelchair": "yes"
    },
    "coordinates": [
      -122.267671,
      37.8698541
    ],
    "name": "Oori Rice Triangles",
    "amenity": "restaurant",
    "accessibility": [
      "wheelchair"
    ],
    "description": "A restaurant in Northern California",
    "popularity_score": 1,
    "rarity": "most hidden",
    "color": "red",
    "time": 75,
    "detour_distance": 0.46872233877513625
  },
  {
    "id": 3191146332,
    "type": "node",
    "tags": {
      "addr:city": "Berkeley",
      "addr:housenumber": "2181",
      "addr:postcode": "94704",
      "addr:street": "Shattuck Avenue",
      "amenity": "pub",
      "beer_garden": "yes",
      "check_date": "2024-12-23",
      "craft": "brewery",
      "diet:vegan": "yes",
      "diet:vegetarian": "yes",
      "food": "yes",
      "indoor_seating": "yes",
      "level": "0;1",
      "microbrewery": "yes",
      "name": "Jupiter",
      "opening_hours": "Mo-Th,Su 11:30-22:00; Fr-Sa 11:30-24:00",
      "outdoor_seating": "yes",
      "website": "http://www.jupiterbeer.com/",
      "wheelchair": "yes"
    },
    "coordinates": [
      -122.2676799,
      37.8697889
    ],
    "name": "Jupiter",
    "amenity": "pub",
    "accessibility": [
      "wheelchair"
    ],
    "description": "A pub in Northern California",
    "popularity_score": null,
    "rarity": "most hidden",
    "color": "red",
    "time": 60,
    "detour_distance": 0.4697130639646923
  },
  {
    "id": 2100543486,
    "type": "node",
    "tags": {
      "addr:city": "Berkeley",
      "addr:country": "US",
      "addr:housenumber": "2045",
      "addr:state": "CA",
      "addr:street": "Kala Bagai Way",
      "amenity": "restaurant",
      "cuisine": "vietnamese",
      "drive_in": "no",
      "microbrewery": "no",
      "name": "Saigon Express",
      "opening_hours": "Mo-Fr 10:00-19:00",
      "outdoor_seating": "no",
      "phone": "+1 510 486 1778",
      "smoking": "no",
      "takeaway": "yes",
      "wheelchair": "yes"
    },
    "coordinates": [
      -122.267537,
      37.871379
    ],
    "name": "Saigon Express",
    "amenity": "restaurant",
    "accessibility": [
      "wheelchair"
    ],
    "description": "A restaurant in Northern California",
    "popularity_score": 1,
    "rarity": "most hidden",
    "color": "red",
    "time": 61,
    "detour_distance": 0.4713341275466088
  },
  {
    "id": 2086696513,
    "type": "node",
    "tags": {
      "barrier": "kerb",
      "kerb": "flush",
      "tactile_paving": "yes",
      "wheelchair": "yes"
    },
    "coordinates": [
      -122.267786,
      37.8693836
    ],
    "name": "Unnamed Feature",
    "accessibility": [
      "wheelchair"
    ],
    "description": "A feature in Northern California",
    "popularity_score": 7,
    "rarity": "most hidden",
    "color": "red",
    "time": 60,
    "detour_distance": 0.47413356873874335
  },
  {
    "id": 354702449,
    "type": "node",
    "tags": {
      "addr:city": "Berkeley",
      "addr:housenumber": "2114",
      "addr:street": "Center Street",
      "amenity": "restaurant",
      "check_date": "2023-11-11",
      "cuisine": "kebab",
      "drive_in": "no",
      "microbrewery": "no",
      "name": "Oasis Grill",
      "opening_hours": "Mo-Su 10:00-21:00",
      "outdoor_seating": "yes",
      "phone": "+15106668951",
      "smoking": "no",
      "takeaway": "yes",
      "website": "https://oasisgrill.com",
      "wheelchair": "yes"
    },
    "coordinates": [
      -122.2673443,
      37.8702677
    ],
    "name": "Oasis Grill",
    "amenity": "restaurant",
    "accessibility": [
      "wheelchair"
    ],
    "description": "A restaurant in Northern California",
    "popularity_score": 6,
    "rarity": "most hidden",
    "color": "red",
    "time": 78,
    "detour_distance": 0.488568170307991
  },
  {
    "id": 9910789304,
    "type": "node",
    "tags": {
      "addr:city": "Berkeley",
      "addr:floor": "12",
      "addr:housenumber": "2121",
      "addr:state": "CA",
      "addr:street": "Center Street",
      "amenity": "bar",
      "check_date": "2022-07-23",
      "cocktails": "yes",
      "contact:facebook": "studyhallrooftoplounge",
      "contact:instagram": "studyhallberkeley",
      "dog": "yes",
      "drink:beer": "yes",
      "drink:wine": "yes",
      "email": "rimbstudyhall@pyramidhotelgroup.com",
      "fixme": "Opening hours should be updated after 2022-08-07, when they'll open for brunch",
      "food": "yes",
      "indoor_seating": "yes",
      "level": "12",
      "live_music": "yes",
      "location": "roof",
      "name": "Study Hall Rooftop Lounge",
      "opening_hours": "Mo-Th,Su 16:30-22:00; Fr,Sa 16:30-24:00",
      "opening_hours:url": "https://www.studyhallrooftoplounge.com/",
      "outdoor_seating": "yes",
      "phone": "+1 510 9820114",
      "reservation": "yes",
      "short_name": "Study Hall",
      "website": "https://www.studyhallrooftoplounge.com/",
      "website:menu": "https://www.studyhallrooftoplounge.com/our-menus",
      "wheelchair": "yes"
    },
    "coordinates": [
      -122.2670878,
      37.8707464
    ],
    "name": "Study Hall Rooftop Lounge",
    "amenity": "bar",
    "accessibility": [
      "wheelchair"
    ],
    "description": "A bar in Northern California",
    "popularity_score": 6,
    "rarity": "most hidden",
    "color": "red",
    "time": 60,
    "detour_distance": 0.5070347096497303
  },
  {
    "id": 2235910278,
    "type": "node",
    "tags": {
      "addr:city": "Berkeley",
      "addr:housenumber": "2233",
      "addr:postcode": "94704",
      "addr:street": "Shattuck Avenue",
      "check_date": "2024-04-07",
      "fax": "+1 510 5489578",
      "name": "E-Z Stop Deli",
      "opening_hours": "Mo 08:00-21:45; Tu-Fr 07:30-22:45; Sa 08:30-22:45; Su 08:30-21:45",
      "phone": "+1 510 5489544",
      "shop": "convenience",
      "website": "http://www.ezstopdeli.com/",
      "wheelchair": "yes"
    },
    "coordinates": [
      -122.267607,
      37.868756
    ],
    "name": "E-Z Stop Deli",
    "accessibility": [
      "wheelchair"
    ],
    "description": "A feature in Northern California",
    "popularity_score": 5,
    "rarity": "most hidden",
    "color": "red",
    "time": 60,
    "detour_distance": 0.5162534640790951
  },
  {
    "id": 2322525666,
    "type": "node",
    "tags": {
      "addr:city": "Berkeley",
      "addr:housenumber": "2272",
      "addr:street": "Shattuck Avenue",
      "amenity": "restaurant",
      "check_date": "2025-02-17",
      "cuisine": "asian;noodle",
      "diet:vegetarian": "yes",
      "name": "Toss Noodle Bar",
      "opening_hours": "Mo-Su 11:00-22:00",
      "phone": "+1 510-845-8677",
      "takeaway": "yes",
      "website": "https://tossnoodlebar.com",
      "wheelchair": "yes"
    },
    "coordinates": [
      -122.268154,
      37.868057
    ],
    "name": "Toss Noodle Bar",
    "amenity": "restaurant",
    "accessibility": [
      "wheelchair"
    ],
    "description": "A restaurant in Northern California",
    "popularity_score": null,
    "rarity": "most hidden",
    "color": "red",
    "time": 78,
    "detour_distance": 0.516306215662555
  },
  {
    "id": 540536383,
    "type": "node",
    "tags": {
      "addr:city": "Berkeley",
      "addr:country": "US",
      "addr:housenumber": "2274",
      "addr:state": "CA",
      "addr:street": "Shattuck Avenue",
      "alt_name": "United Artists Theatres",
      "check_date": "2023-03-11",
      "disused:amenity": "cinema",
      "name": "Regal UA Berkeley",
      "operator": "Regal Cinemas",
      "website": "https://www.regmovies.com/theatres/regal-ua-berkeley/1172",
      "wheelchair": "limited",
      "wikidata": "Q44859248"
    },
    "coordinates": [
      -122.268147,
      37.867969
    ],
    "name": "Regal UA Berkeley",
    "accessibility": [
      "wheelchair"
    ],
    "description": "A feature in Northern California",
    "popularity_score": 1,
    "rarity": "most hidden",
    "color": "red",
    "time": 60,
    "detour_distance": 0.5227150467124595
  },
  {
    "id": 2322524023,
    "type": "node",
    "tags": {
      "addr:city": "Berkeley",
      "addr:housenumber": "2286",
      "addr:street": "Shattuck Avenue",
      "disused:amenity": "restaurant",
      "wheelchair": "yes"
    },
    "coordinates": [
      -122.2681058,
      37.8676978
    ],
    "name": "Unnamed Feature",
    "accessibility": [
      "wheelchair"
    ],
    "description": "A feature in Northern California",
    "popularity_score": null,
    "rarity": "most hidden",
    "color": "red",
    "time": 60,
    "detour_distance": 0.5444241912221728
  },
  {
    "id": 1680255991,
    "type": "node",
    "tags": {
      "addr:city": "Berkeley",
      "addr:country": "US",
      "addr:housenumber": "2261",
      "addr:state": "CA",
      "addr:street": "Shattuck Avenue",
      "amenity": "restaurant",
      "check_date": "2025-03-31",
      "contact:instagram": "https://www.instagram.com/explore/locations/916489",
      "cuisine": "louisiana",
      "drive_in": "no",
      "level": "0",
      "microbrewery": "no",
      "name": "Angeline's Louisiana Kitchen",
      "opening_hours": "Tu-Fr 11:30-21:00; Sa-Su 12:00-20:30; Mo off",
      "outdoor_seating": "sidewalk",
      "phone": "+1 510 5486900",
      "smoking": "no",
      "website": "https://angelineskitchen.com",
      "wheelchair": "yes"
    },
    "coordinates": [
      -122.2675427,
      37.8682414
    ],
    "name": "Angeline's Louisiana Kitchen",
    "amenity": "restaurant",
    "accessibility": [
      "wheelchair"
    ],
    "description": "A restaurant in Northern California",
    "popularity_score": null,
    "rarity": "most hidden",
    "color": "red",
    "time": 51,
    "detour_distance": 0.5491301750752553
  },
  {
    "id": 3520885167,
    "type": "node",
    "tags": {
      "addr:city": "Berkeley",
      "addr:housenumber": "2271",
      "addr:postcode": "94701",
      "addr:state": "CA",
      "addr:street": "Shattuck Avenue",
      "amenity": "bar",
      "check_date": "2022-07-23",
      "cocktails": "yes",
      "contact:facebook": "tupperandreed",
      "contact:instagram": "tupperandreed",
      "contact:twitter": "TupperandReed",
      "drink:beer": "yes",
      "drink:wine": "yes",
      "email": "info@tupperandreed.com",
      "food": "no",
      "indoor_seating": "yes",
      "live_music": "yes",
      "name": "Tupper & Reed",
      "opening_hours": "Tu-We 17:00-24:00; Th-Sa 17:00-02:00; Su 17:00-24:00",
      "opening_hours:url": "https://www.tupperandreed.com/",
      "operator": "Future Bars",
      "outdoor_seating": "no",
      "phone": "+1 510 8594472",
      "smoking": "outside",
      "sport": "billiards",
      "website": "https://www.tupperandreed.com/",
      "wheelchair": "yes",
      "wheelchair:description": "A previous user said the tables were too tight, but the venue has ramps and elevators, and I've seen a wheelchair user there."
    },
    "coordinates": [
      -122.2675479,
      37.8681385
    ],
    "name": "Tupper & Reed",
    "amenity": "bar",
    "accessibility": [
      "wheelchair"
    ],
    "description": "A bar in Northern California",
    "popularity_score": null,
    "rarity": "most hidden",
    "color": "red",
    "time": 60,
    "detour_distance": 0.5548509735466364
  },
  {
    "id": 9868737733,
    "type": "node",
    "tags": {
      "barrier": "kerb",
      "kerb": "lowered",
      "tactile_paving": "yes",
      "wheelchair": "yes"
    },
    "coordinates": [
      -122.2671606,
      37.8732991
    ],
    "name": "Unnamed Feature",
    "accessibility": [
      "wheelchair"
    ],
    "description": "A feature in Northern California",
    "popularity_score": null,
    "rarity": "most hidden",
    "color": "red",
    "time": 60,
    "detour_distance": 0.5703881317316819
  },
  {
    "id": 2322519344,
    "type": "node",
    "tags": {
      "addr:city": "Berkeley",
      "addr:housenumber": "2115",
      "addr:postcode": "94704",
      "addr:state": "CA",
      "addr:street": "Kittredge Street",
      "amenity": "restaurant",
      "cuisine": "asian;chinese",
      "microbrewery": "no",
      "name": "Tasty Pot",
      "name:zh": "\u5473\u9f0e\u5c0f\u706b\u9505",
      "opening_hours": "Mo-Su 11:45-14:15, Su-Th 17:00-20:30, Fr,Sa 17:00-20:45",
      "outdoor_seating": "no",
      "smoking": "no",
      "wheelchair": "yes"
    },
    "coordinates": [
      -122.2669185,
      37.8687321
    ],
    "name": "Tasty Pot",
    "amenity": "restaurant",
    "accessibility": [
      "wheelchair"
    ],
    "description": "A restaurant in Northern California",
    "popularity_score": 2,
    "rarity": "most hidden",
    "color": "red",
    "time": 48,
    "detour_distance": 0.5719908332623218
  },
  {
    "id": 354703981,
    "type": "node",
    "tags": {
      "addr:city": "Berkeley",
      "addr:housenumber": "2160",
      "addr:street": "Center Street",
      "check_date": "2024-06-01",
      "cuisine": "american;hot_dog",
      "diet:vegetarian": "yes",
      "disused:amenity": "fast_food",
      "drive_in": "no",
      "drive_through": "no",
      "microbrewery": "no",
      "name": "Top Dog",
      "outdoor_seating": "yes",
      "payment:cash": "yes",
      "payment:credit_cards": "yes",
      "smoking": "no",
      "website": "http://www.topdoghotdogs.com/",
      "wheelchair": "yes"
    },
    "coordinates": [
      -122.2663555,
      37.8703953
    ],
    "name": "Top Dog",
    "accessibility": [
      "wheelchair"
    ],
    "description": "A feature in Northern California",
    "popularity_score": 5,
    "rarity": "most hidden",
    "color": "red",
    "time": 60,
    "detour_distance": 0.5733395114326424
  },
  {
    "id": 9868737734,
    "type": "node",
    "tags": {
      "barrier": "kerb",
      "kerb": "lowered",
      "tactile_paving": "yes",
      "wheelchair": "yes"
    },
    "coordinates": [
      -122.2675262,
      37.8739381
    ],
    "name": "Unnamed Feature",
    "accessibility": [
      "wheelchair"
    ],
    "description": "A feature in Northern California",
    "popularity_score": null,
    "rarity": "most hidden",
    "color": "red",
    "time": 60,
    "detour_distance": 0.5815179574253704
  },
  {
    "id": 3064295838,
    "type": "node",
    "tags": {
      "access": "yes",
      "amenity": "parking",
      "fee": "yes",
      "layer": "-1",
      "name": "Oxford Garage",
      "operator": "City of Berkeley",
      "parking": "underground",
      "website": "https://www.cityofberkeley.info/Public_Works/Transportation/Off_Street_Parking_%28Garages_and_Lots%29.aspx"
    },
    "coordinates": [
      -122.2667371,
      37.8687436
    ],
    "name": "Oxford Garage",
    "amenity": "parking",
    "accessibility": [],
    "description": "A parking in Northern California",
    "popularity_score": null,
    "rarity": "most hidden",
    "color": "red",
    "time": 60,
    "detour_distance": 0.5860430961337796
  },
  {
    "id": 778894392,
    "type": "node",
    "tags": {
      "addr:city": "Berkeley",
      "addr:country": "US",
      "addr:housenumber": "1650",
      "addr:state": "CA",
      "addr:street": "Martin Luther King Jr Way",
      "disused:leisure": "fitness_centre",
      "old_name": "Strong Island Fitness",
      "wheelchair": "yes"
    },
    "coordinates": [
      -122.273655,
      37.876117
    ],
    "name": "Unnamed Feature",
    "accessibility": [
      "wheelchair"
    ],
    "description": "A feature in Northern California",
    "popularity_score": 2,
    "rarity": "most hidden",
    "color": "red",
    "time": 60,
    "detour_distance": 0.5909564925677232
  },
  {
    "id": 3230877764,
    "type": "node",
    "tags": {
      "addr:city": "Berkeley",
      "addr:housenumber": "1600",
      "addr:state": "CA",
      "addr:street": "University Avenue",
      "alt_name": "Out of the Closet Thrift Store",
      "contact:facebook": "OutoftheClosetThriftStores",
      "contact:instagram": "outofthecloset",
      "name": "Out of the Closet",
      "opening_hours": "Mo-Sa 10:00-19:00; Su 10:00-18:00",
      "phone": "+18005588220",
      "shop": "second_hand",
      "website": "https://outofthecloset.org/",
      "wheelchair": "yes"
    },
    "coordinates": [
      -122.2796235,
      37.8705445
    ],
    "name": "Out of the Closet",
    "accessibility": [
      "wheelchair"
    ],
    "description": "A feature in Northern California",
    "popularity_score": 2,
    "rarity": "most hidden",
    "color": "red",
    "time": 60,
    "detour_distance": 0.5943216157848277
  },
  {
    "id": 2343900343,
    "type": "node",
    "tags": {
      "addr:city": "Berkeley",
      "addr:housenumber": "2330",
      "addr:street": "Shattuck Avenue",
      "check_date:opening_hours": "2024-08-27",
      "name": "Crossroads Trading Co.",
      "opening_hours": "Mo-Sa 11:00-20:00; Su 11:00-19:00",
      "phone": "(510) 843-7600",
      "shop": "clothes",
      "website": "https://crossroadstrading.com/location/berkeley-shattuck-ave/",
      "wheelchair": "yes"
    },
    "coordinates": [
      -122.268029,
      37.866988
    ],
    "name": "Crossroads Trading Co.",
    "accessibility": [
      "wheelchair"
    ],
    "description": "A feature in Northern California",
    "popularity_score": null,
    "rarity": "most hidden",
    "color": "red",
    "time": 60,
    "detour_distance": 0.6028641497314947
  },
  {
    "id": 318886294,
    "type": "node",
    "tags": {
      "addr:city": "Berkeley",
      "addr:housenumber": "2301",
      "addr:state": "CA",
      "addr:street": "Shattuck Avenue",
      "amenity": "bank",
      "atm": "yes",
      "check_date": "2024-12-23",
      "drive_through": "no",
      "level": "0",
      "name": "Mechanics Bank",
      "opening_hours": "Mo-Fr 09:00-17:00",
      "wheelchair": "yes"
    },
    "coordinates": [
      -122.2673624,
      37.8674622
    ],
    "name": "Mechanics Bank",
    "amenity": "bank",
    "accessibility": [
      "wheelchair"
    ],
    "description": "A bank in Northern California",
    "popularity_score": null,
    "rarity": "most hidden",
    "color": "red",
    "time": 60,
    "detour_distance": 0.6116729644026094
  },
  {
    "id": 2343899997,
    "type": "node",
    "tags": {
      "addr:city": "Berkeley",
      "addr:housenumber": "2350",
      "addr:state": "CA",
      "addr:street": "Shattuck Avenue",
      "amenity": "bank",
      "name": "BluPeak credit union",
      "opening_hours": "Mo-Fr 09:00-17:00; Sa 09:00-16:00",
      "phone": "866-8734-968",
      "website": "https://www.blupeak.com/",
      "wheelchair": "yes"
    },
    "coordinates": [
      -122.268018,
      37.866793
    ],
    "name": "BluPeak credit union",
    "amenity": "bank",
    "accessibility": [
      "wheelchair"
    ],
    "description": "A bank in Northern California",
    "popularity_score": 3,
    "rarity": "most hidden",
    "color": "red",
    "time": 60,
    "detour_distance": 0.6191182931558242
  },
  {
    "id": 11595396139,
    "type": "node",
    "tags": {
      "barrier": "kerb",
      "kerb": "lowered",
      "tactile_paving": "no",
      "wheelchair": "yes"
    },
    "coordinates": [
      -122.2656668,
      37.8697336
    ],
    "name": "Unnamed Feature",
    "accessibility": [
      "wheelchair"
    ],
    "description": "A feature in Northern California",
    "popularity_score": null,
    "rarity": "most hidden",
    "color": "red",
    "time": 60,
    "detour_distance": 0.6435190505935199
  },
  {
    "id": 12446047372,
    "type": "node",
    "tags": {
      "access": "permissive",
      "door": "yes",
      "entrance": "yes",
      "level": "0",
      "wheelchair": "yes"
    },
    "coordinates": [
      -122.2671119,
      37.8669975
    ],
    "name": "Unnamed Feature",
    "accessibility": [
      "wheelchair"
    ],
    "description": "A feature in Northern California",
    "popularity_score": null,
    "rarity": "most hidden",
    "color": "red",
    "time": 60,
    "detour_distance": 0.6613171297593691
  },
  {
    "id": 3383974692,
    "type": "node",
    "tags": {
      "addr:country": "US",
      "addr:housenumber": "1581",
      "addr:state": "CA",
      "addr:street": "University Avenue",
      "amenity": "restaurant",
      "diet:vegetarian": "yes",
      "name": "Three Stone Hearth",
      "note": "Prepared food pickup",
      "opening_hours": "We 16:00-19:00, Th 10:00-16:00, Fr 14:00-18:00, Sa 09:00-15:00",
      "takeaway": "yes",
      "website": "https://threestonehearth.com/",
      "wheelchair": "yes"
    },
    "coordinates": [
      -122.2806804,
      37.8707499
    ],
    "name": "Three Stone Hearth",
    "amenity": "restaurant",
    "accessibility": [
      "wheelchair"
    ],
    "description": "A restaurant in Northern California",
    "popularity_score": null,
    "rarity": "most hidden",
    "color": "red",
    "time": 46,
    "detour_distance": 0.6862595539316952
  },
  {
    "id": 1419647301,
    "type": "node",
    "tags": {
      "barrier": "kerb",
      "kerb": "lowered",
      "tactile_paving": "yes",
      "wheelchair": "yes"
    },
    "coordinates": [
      -122.2650961,
      37.8716177
    ],
    "name": "Unnamed Feature",
    "accessibility": [
      "wheelchair"
    ],
    "description": "A feature in Northern California",
    "popularity_score": 2,
    "rarity": "most hidden",
    "color": "red",
    "time": 60,
    "detour_distance": 0.6872232321898908
  },
  {
    "id": 543928298,
    "type": "node",
    "tags": {
      "amenity": "place_of_worship",
      "name": "Congregation Beth Israel",
      "phone": "+15108435246",
      "religion": "jewish",
      "website": "https://www.cbiberkeley.org/",
      "wheelchair": "yes",
      "wikidata": "Q5160609"
    },
    "coordinates": [
      -122.2779313,
      37.8661062
    ],
    "name": "Congregation Beth Israel",
    "amenity": "place_of_worship",
    "accessibility": [
      "wheelchair"
    ],
    "description": "A place_of_worship in Northern California",
    "popularity_score": 1,
    "rarity": "most hidden",
    "color": "red",
    "time": 60,
    "detour_distance": 0.6891435628785982
  },
  {
    "id": 12737847181,
    "type": "node",
    "tags": {
      "access": "employees;students",
      "door": "hinged",
      "entrance": "yes",
      "wheelchair": "yes"
    },
    "coordinates": [
      -122.2650535,
      37.8728718
    ],
    "name": "Unnamed Feature",
    "accessibility": [
      "wheelchair"
    ],
    "description": "A feature in Northern California",
    "popularity_score": 3,
    "rarity": "most hidden",
    "color": "red",
    "time": 60,
    "detour_distance": 0.7217799616491113
  },
  {
    "id": 12737847190,
    "type": "node",
    "tags": {
      "door": "hinged",
      "entrance": "yes",
      "wheelchair": "yes"
    },
    "coordinates": [
      -122.2648149,
      37.8727975
    ],
    "name": "Unnamed Feature",
    "accessibility": [
      "wheelchair"
    ],
    "description": "A feature in Northern California",
    "popularity_score": null,
    "rarity": "most hidden",
    "color": "red",
    "time": 60,
    "detour_distance": 0.7392238384770176
  },
  {
    "id": 7471934966,
    "type": "node",
    "tags": {
      "addr:city": "Berkeley",
      "addr:housenumber": "2430",
      "addr:postcode": "94704",
      "addr:state": "CA",
      "addr:street": "Shattuck Avenue",
      "amenity": "restaurant",
      "check_date": "2024-12-09",
      "check_date:opening_hours": "2024-12-09",
      "cuisine": "chinese",
      "diet:vegetarian": "yes",
      "drink:beer": "yes",
      "indoor_seating": "yes",
      "name": "Noodles Fresh",
      "opening_hours": "Mo-Su 11:00-21:00",
      "phone": "+1-510-906-8800",
      "website": "https://noodlesfresh.com/",
      "wheelchair": "yes"
    },
    "coordinates": [
      -122.2678295,
      37.8651962
    ],
    "name": "Noodles Fresh",
    "amenity": "restaurant",
    "accessibility": [
      "wheelchair"
    ],
    "description": "A restaurant in Northern California",
    "popularity_score": 6,
    "rarity": "most hidden",
    "color": "red",
    "time": 56,
    "detour_distance": 0.7674376761507172
  },
  {
    "id": 2342885867,
    "type": "node",
    "tags": {
      "name": "Viveur Salon",
      "shop": "hairdresser",
      "wheelchair": "yes"
    },
    "coordinates": [
      -122.269174,
      37.877225
    ],
    "name": "Viveur Salon",
    "accessibility": [
      "wheelchair"
    ],
    "description": "A feature in Northern California",
    "popularity_score": 2,
    "rarity": "most hidden",
    "color": "red",
    "time": 60,
    "detour_distance": 0.7804003726069496
  },
  {
    "id": 4925662561,
    "type": "node",
    "tags": {
      "barrier": "kerb",
      "kerb": "flush",
      "tactile_paving": "yes",
      "wheelchair": "yes"
    },
    "coordinates": [
      -121.9282935,
      37.6983476
    ],
    "name": "Unnamed Feature",
    "accessibility": [
      "wheelchair"
    ],
    "description": "A feature in Northern California",
    "popularity_score": null,
    "rarity": "most hidden",
    "color": "red",
    "time": 60,
    "detour_distance": 0.7836873878235777
  },
  {
    "id": 11515571168,
    "type": "node",
    "tags": {
      "barrier": "kerb",
      "kerb": "lowered",
      "tactile_paving": "yes",
      "wheelchair": "yes"
    },
    "coordinates": [
      -122.2722203,
      37.8632765
    ],
    "name": "Unnamed Feature",
    "accessibility": [
      "wheelchair"
    ],
    "description": "A feature in Northern California",
    "popularity_score": null,
    "rarity": "most hidden",
    "color": "red",
    "time": 60,
    "detour_distance": 0.8428353151169524
  },
  {
    "id": 2215228782,
    "type": "node",
    "tags": {
      "addr:city": "Berkeley",
      "addr:country": "US",
      "addr:housenumber": "1622",
      "addr:state": "CA",
      "addr:street": "Shattuck Avenue",
      "name": "Chic Salon",
      "shop": "hairdresser",
      "wheelchair": "yes"
    },
    "coordinates": [
      -122.2692355,
      37.8778793
    ],
    "name": "Chic Salon",
    "accessibility": [
      "wheelchair"
    ],
    "description": "A feature in Northern California",
    "popularity_score": null,
    "rarity": "most hidden",
    "color": "red",
    "time": 60,
    "detour_distance": 0.8450862436475755
  },
  {
    "id": 10226310568,
    "type": "node",
    "tags": {
      "barrier": "kerb",
      "kerb": "flush",
      "tactile_paving": "yes",
      "wheelchair": "yes"
    },
    "coordinates": [
      -122.2821254,
      37.872985
    ],
    "name": "Unnamed Feature",
    "accessibility": [
      "wheelchair"
    ],
    "description": "A feature in Northern California",
    "popularity_score": 2,
    "rarity": "most hidden",
    "color": "red",
    "time": 60,
    "detour_distance": 0.8472990287363495
  },
  {
    "id": 10226310581,
    "type": "node",
    "tags": {
      "barrier": "kerb",
      "kerb": "flush",
      "tactile_paving": "yes",
      "wheelchair": "yes"
    },
    "coordinates": [
      -122.2821407,
      37.8730446
    ],
    "name": "Unnamed Feature",
    "accessibility": [
      "wheelchair"
    ],
    "description": "A feature in Northern California",
    "popularity_score": 2,
    "rarity": "most hidden",
    "color": "red",
    "time": 60,
    "detour_distance": 0.8504745255252637
  },
  {
    "id": 314115508,
    "type": "node",
    "tags": {
      "addr:city": "Berkeley",
      "addr:country": "US",
      "addr:postcode": "94709",
      "addr:state": "CA",
      "check_date": "2023-05-20",
      "level": "0",
      "name": "Modena Salon",
      "phone": "+1 510-524-9944",
      "shop": "beauty",
      "wheelchair": "yes"
    },
    "coordinates": [
      -122.2692412,
      37.8779763
    ],
    "name": "Modena Salon",
    "accessibility": [
      "wheelchair"
    ],
    "description": "A feature in Northern California",
    "popularity_score": null,
    "rarity": "most hidden",
    "color": "red",
    "time": 60,
    "detour_distance": 0.854900757551662
  },
  {
    "id": 10226310567,
    "type": "node",
    "tags": {
      "barrier": "kerb",
      "kerb": "flush",
      "tactile_paving": "yes",
      "wheelchair": "yes"
    },
    "coordinates": [
      -122.2823925,
      37.8729556
    ],
    "name": "Unnamed Feature",
    "accessibility": [
      "wheelchair"
    ],
    "description": "A feature in Northern California",
    "popularity_score": null,
    "rarity": "most hidden",
    "color": "red",
    "time": 60,
    "detour_distance": 0.8689293780225942
  },
  {
    "id": 10226310562,
    "type": "node",
    "tags": {
      "barrier": "kerb",
      "kerb": "flush",
      "tactile_paving": "yes",
      "wheelchair": "yes"
    },
    "coordinates": [
      -122.2824203,
      37.8731518
    ],
    "name": "Unnamed Feature",
    "accessibility": [
      "wheelchair"
    ],
    "description": "A feature in Northern California",
    "popularity_score": null,
    "rarity": "most hidden",
    "color": "red",
    "time": 60,
    "detour_distance": 0.8774213694574948
  },
  {
    "id": 420034459,
    "type": "node",
    "tags": {
      "addr:city": "Berkeley",
      "addr:country": "US",
      "addr:housenumber": "1600",
      "addr:postcode": "94709",
      "addr:state": "CA",
      "addr:street": "Shattuck Avenue",
      "addr:unit": "102",
      "amenity": "restaurant",
      "check_date": "2023-05-20",
      "cuisine": "crepe",
      "drive_in": "no",
      "level": "0",
      "microbrewery": "no",
      "name": "Crepevine",
      "opening_hours:signed": "no",
      "outdoor_seating": "yes",
      "phone": "+1 510 7051836",
      "smoking": "no",
      "takeaway": "yes",
      "website": "https://crepevine.com/",
      "wheelchair": "yes"
    },
    "coordinates": [
      -122.269273,
      37.8782219
    ],
    "name": "Crepevine",
    "amenity": "restaurant",
    "accessibility": [
      "wheelchair"
    ],
    "description": "A restaurant in Northern California",
    "popularity_score": null,
    "rarity": "most hidden",
    "color": "red",
    "time": 89,
    "detour_distance": 0.879306245042396
  },
  {
    "id": 11322981447,
    "type": "node",
    "tags": {
      "barrier": "kerb",
      "kerb": "flush",
      "tactile_paving": "yes",
      "wheelchair": "yes"
    },
    "coordinates": [
      -122.2824597,
      37.8731298
    ],
    "name": "Unnamed Feature",
    "accessibility": [
      "wheelchair"
    ],
    "description": "A feature in Northern California",
    "popularity_score": null,
    "rarity": "most hidden",
    "color": "red",
    "time": 60,
    "detour_distance": 0.8800174745411973
  },
  {
    "id": 2172274149,
    "type": "node",
    "tags": {
      "bench": "no",
      "bus": "yes",
      "gtfs_id": "0304100",
      "gtfs_location_type": "0",
      "gtfs_stop_code": "55380",
      "highway": "bus_stop",
      "name": "Sacramento Street & Allston Way",
      "network": "AC Transit",
      "operator": "Alameda-Contra Costa Transit District",
      "public_transport": "platform",
      "ref": "55380",
      "route_ref": "J;88;688",
      "shelter": "no",
      "wheelchair": "limited"
    },
    "coordinates": [
      -122.2818011,
      37.8671016
    ],
    "name": "Sacramento Street & Allston Way",
    "accessibility": [
      "wheelchair"
    ],
    "description": "A feature in Northern California",
    "popularity_score": 8,
    "rarity": "most hidden",
    "color": "red",
    "time": 60,
    "detour_distance": 0.8878614673855488
  },
  {
    "id": 4559341449,
    "type": "node",
    "tags": {
      "addr:city": "Pleasanton",
      "addr:housenumber": "1016",
      "addr:postcode": "94566",
      "addr:state": "CA",
      "addr:street": "Stoneridge Mall Road",
      "addr:unit": "A110",
      "amenity": "fast_food",
      "brand": "Subway",
      "brand:wikidata": "Q244457",
      "contact:phone": "+1 510 601-6400",
      "cuisine": "sandwich",
      "name": "Subway",
      "opening_hours": "Mo-Sa 08:00-21:00;Su 09:00-18:00",
      "outdoor_seating": "yes",
      "phone": "+1 925-225-0805",
      "takeaway": "yes",
      "website": "https://restaurants.subway.com/united-states/ca/pleasanton/1016-stoneridge-mall",
      "wheelchair": "yes"
    },
    "coordinates": [
      -121.9287863,
      37.6962994
    ],
    "name": "Subway",
    "amenity": "fast_food",
    "accessibility": [
      "wheelchair"
    ],
    "description": "A fast_food in Northern California",
    "popularity_score": null,
    "rarity": "most hidden",
    "color": "red",
    "time": 60,
    "detour_distance": 0.8963349986447241
  },
  {
    "id": 4559341448,
    "type": "node",
    "tags": {
      "addr:housenumber": "1004",
      "addr:street": "Stoneridge Mall Road",
      "amenity": "fast_food",
      "brand": "McDonald's",
      "brand:wikidata": "Q38076",
      "check_date": "2022-03-02",
      "contact:phone": "+1 925 463-0909",
      "cuisine": "burger",
      "fixme:atp": "Check if still exists. No corresponding ATP object.",
      "internet_access": "wlan",
      "name": "McDonald's",
      "opening_hours": "Mo 09:00-19:30;Tu-Su 08:00-21:30",
      "takeaway": "yes",
      "wheelchair": "yes"
    },
    "coordinates": [
      -121.9288386,
      37.696257
    ],
    "name": "McDonald's",
    "amenity": "fast_food",
    "accessibility": [
      "wheelchair"
    ],
    "description": "A fast_food in Northern California",
    "popularity_score": null,
    "rarity": "most hidden",
    "color": "red",
    "time": 60,
    "detour_distance": 0.8966183171678629
  },
  {
    "id": 5128672823,
    "type": "node",
    "tags": {
      "addr:housenumber": "1448",
      "addr:street": "Stoneridge Mall Road",
      "brand": "Uniqlo",
      "brand:wikidata": "Q26070",
      "name": "Uniqlo",
      "opening_hours": "Mo-Sa 10:00-21:00; Su 11:00-19:00",
      "shop": "clothes",
      "website": "https://www.uniqlo.com/us/en/stores-details/?StoreID=10200063&source=stores",
      "wheelchair": "yes"
    },
    "coordinates": [
      -121.92952,
      37.6957786
    ],
    "name": "Uniqlo",
    "accessibility": [
      "wheelchair"
    ],
    "description": "A feature in Northern California",
    "popularity_score": null,
    "rarity": "most hidden",
    "color": "red",
    "time": 60,
    "detour_distance": 0.8981877224392454
  },
  {
    "id": 10226339921,
    "type": "node",
    "tags": {
      "barrier": "kerb",
      "kerb": "flush",
      "tactile_paving": "yes",
      "wheelchair": "yes"
    },
    "coordinates": [
      -122.2828012,
      37.8730926
    ],
    "name": "Unnamed Feature",
    "accessibility": [
      "wheelchair"
    ],
    "description": "A feature in Northern California",
    "popularity_score": null,
    "rarity": "most hidden",
    "color": "red",
    "time": 60,
    "detour_distance": 0.9076009706064093
  },
  {
    "id": 10226310585,
    "type": "node",
    "tags": {
      "barrier": "kerb",
      "kerb": "flush",
      "tactile_paving": "yes",
      "wheelchair": "yes"
    },
    "coordinates": [
      -122.2823916,
      37.8740487
    ],
    "name": "Unnamed Feature",
    "accessibility": [
      "wheelchair"
    ],
    "description": "A feature in Northern California",
    "popularity_score": null,
    "rarity": "most hidden",
    "color": "red",
    "time": 60,
    "detour_distance": 0.9093265941460056
  },
  {
    "id": 10226310586,
    "type": "node",
    "tags": {
      "barrier": "kerb",
      "kerb": "flush",
      "tactile_paving": "yes",
      "wheelchair": "yes"
    },
    "coordinates": [
      -122.2825482,
      37.8740287
    ],
    "name": "Unnamed Feature",
    "accessibility": [
      "wheelchair"
    ],
    "description": "A feature in Northern California",
    "popularity_score": null,
    "rarity": "most hidden",
    "color": "red",
    "time": 60,
    "detour_distance": 0.9211267475579622
  },
  {
    "id": 11515578379,
    "type": "node",
    "tags": {
      "barrier": "kerb",
      "kerb": "lowered",
      "tactile_paving": "yes",
      "wheelchair": "yes"
    },
    "coordinates": [
      -122.2721263,
      37.8625426
    ],
    "name": "Unnamed Feature",
    "accessibility": [
      "wheelchair"
    ],
    "description": "A feature in Northern California",
    "popularity_score": null,
    "rarity": "most hidden",
    "color": "red",
    "time": 60,
    "detour_distance": 0.9248147467620428
  },
  {
    "id": 11515578381,
    "type": "node",
    "tags": {
      "barrier": "kerb",
      "kerb": "lowered",
      "tactile_paving": "yes",
      "wheelchair": "yes"
    },
    "coordinates": [
      -122.2719043,
      37.8625522
    ],
    "name": "Unnamed Feature",
    "accessibility": [
      "wheelchair"
    ],
    "description": "A feature in Northern California",
    "popularity_score": null,
    "rarity": "most hidden",
    "color": "red",
    "time": 60,
    "detour_distance": 0.9253183803542561
  }
]